ONEWEB-0517             
1 54135U 22138Y   24055.13414394  .00000014  00000+0  21151-5 0  9998
2 54135  87.9148 112.9931 0002293  96.1539 263.9855 13.19725558 66378
ONEWEB-0518             
1 54136U 22138Z   24054.84983230  .00000063  00000+0  12462-3 0  9993
2 54136  87.9154 113.0559 0002145 101.6155 258.5218 13.19726005 65466
ONEWEB-0519             
1 54137U 22138AA  24054.72346777  .00000142  00000+0  32317-3 0  9999
2 54137  87.9147 113.0714 0002453  97.2006 262.9406 13.19726028 65451
ONEWEB-0520             
1 54138U 22138AB  24054.90984867  .00000032  00000+0  48193-4 0  9996
2 54138  87.9147 113.0370 0002327  86.8805 273.2594 13.19725877 65466
ONEWEB-0521             
1 54139U 22138AC  24054.86720792  .00000173  00000+0  39857-3 0  9999
2 54139  87.9146 113.0401 0002107 107.4027 252.7336 13.19725386 65408
ONEWEB-0522             
1 54140U 22138AD  24054.92249087  .00000091  00000+0  19395-3 0  9995
2 54140  87.9145 113.0312 0001942  94.5500 265.5854 13.19725198 65451
ONEWEB-0523             
1 54141U 22138AE  24054.79680973  .00000169  00000+0  38477-3 0  9992
2 54141  87.9129  82.4955 0001360 120.7782 239.3485 13.20770715 67845
ONEWEB-0524             
1 54142U 22138AF  24054.78576058  .00000150  00000+0  33701-3 0  9995
2 54142  87.9130  82.5019 0000978  63.3028 296.8205 13.20771483 67840
